YAOGAN-36 04C           
1 54750U 22171E   26068.78871400  .00016196  00000+0  54592-3 0  9991
2 54750  34.9797  96.6578 0006685 275.3761  84.6192 15.29852307180246
STARLINK-31161          
1 58795U 24012J   26068.33254313 -.00000120  00000+0  51591-5 0  9998
2 58795  43.0016 167.0695 0000821 246.6906 113.3859 15.27571922121182
